KUIPER-00044            
1 64505U 25134F   25272.21873576  .00009760  00000+0  13048-2 0  9991
2 64505  51.8980 240.6171 0014491  98.5616 261.6989 14.79961518 15972
KUIPER-00046            
1 64506U 25134G   25270.11916075 -.00010845  00000+0 -13948-2 0  9998
2 64506  51.8976 246.2684 0011772 105.7013 254.5249 14.79901250 15719
KUIPER-00047            
1 64507U 25134H   25272.25002315 -.00320379  00000+0 -10245-1 0  9991
2 64507  51.8638 219.9045 0012097 115.6742 186.3758 15.33124872  5414
KUIPER-00048            
1 64508U 25134J   25272.25002315 -.00202888  00000+0 -63057-2 0  9996
2 64508  51.8780 218.5751 0003897  91.8677 219.2924 15.33606373  3940
KUIPER-00049            
1 64509U 25134K   25272.25002315 -.00984305  00000+0 -90024-1 0  9991
2 64509  51.8883 223.7267 0007023  82.6457 257.6420 14.97379666  3638
KUIPER-00050            
1 64510U 25134L   25272.25002315  .00026533  00000+0  23120-2 0  9995
2 64510  51.8889 224.9037 0006194 123.3314 357.4370 14.96694211  5301
KUIPER-00051            
1 64511U 25134M   25272.25002315 -.01727251  00000+0 -12567+0 0  9994
2 64511  51.8896 222.3381 0006165  89.8940 124.8925 15.06719214  5285
KUIPER-00052            
1 64512U 25134N   25272.23568751  .00201553  00000+0  25026-2 0  9990
2 64512  51.8724 210.2295 0008056 120.1250 240.0545 15.58772173 16393
